[{"OBJECT_NAME":"OPS 7218 (TRANSIT 16)","OBJECT_ID":"1967-048A","EPOCH":"2026-03-07T12:28:00.042816","MEAN_MOTION":13.50743728,"ECCENTRICITY":0.00185128,"INCLINATION":89.6811,"RA_OF_ASC_NODE":351.2372,"ARG_OF_PERICENTER":228.1801,"MEAN_ANOMALY":306.8476,"EPHEMERIS_TYPE":0,"CLASSIFICATION_TYPE":"U","NORAD_CAT_ID":2807,"ELEMENT_SET_NO":999,"REV_AT_EPOCH":89420,"BSTAR":0.00027008456,"MEAN_MOTION_DOT":1.84e-6,"MEAN_MOTION_DDOT":0},{"OBJECT_NAME":"OPS 4947 (TRANSIT 17)","OBJECT_ID":"1967-092A","EPOCH":"2026-03-07T15:07:54.895008","MEAN_MOTION":13.53477572,"ECCENTRICITY":0.00475915,"INCLINATION":89.2562,"RA_OF_ASC_NODE":17.97,"ARG_OF_PERICENTER":351.923,"MEAN_ANOMALY":181.3858,"EPHEMERIS_TYPE":0,"CLASSIFICATION_TYPE":"U","NORAD_CAT_ID":2965,"ELEMENT_SET_NO":999,"REV_AT_EPOCH":88245,"BSTAR":0.00028216483,"MEAN_MOTION_DOT":2.02e-6,"MEAN_MOTION_DDOT":0},{"OBJECT_NAME":"OPS 7034 (TRANSIT 18)","OBJECT_ID":"1968-012A","EPOCH":"2026-03-07T14:54:35.975808","MEAN_MOTION":13.51588867,"ECCENTRICITY":0.00720694,"INCLINATION":90.0212,"RA_OF_ASC_NODE":273.8651,"ARG_OF_PERICENTER":285.1425,"MEAN_ANOMALY":136.0123,"EPHEMERIS_TYPE":0,"CLASSIFICATION_TYPE":"U","NORAD_CAT_ID":3133,"ELEMENT_SET_NO":999,"REV_AT_EPOCH":58065,"BSTAR":0.00019474007,"MEAN_MOTION_DOT":1.38e-6,"MEAN_MOTION_DDOT":0},{"OBJECT_NAME":"NNSS 19 (TRANSIT 19)","OBJECT_ID":"1970-067A","EPOCH":"2026-03-07T11:34:55.763040","MEAN_MOTION":13.51337878,"ECCENTRICITY":0.0173043,"INCLINATION":90.0055,"RA_OF_ASC_NODE":234.5797,"ARG_OF_PERICENTER":47.8881,"MEAN_ANOMALY":313.6834,"EPHEMERIS_TYPE":0,"CLASSIFICATION_TYPE":"U","NORAD_CAT_ID":4507,"ELEMENT_SET_NO":999,"REV_AT_EPOCH":73366,"BSTAR":0.00021132617,"MEAN_MOTION_DOT":1.61e-6,"MEAN_MOTION_DDOT":0},{"OBJECT_NAME":"NNSS 20 (TRANSIT 20)","OBJECT_ID":"1973-081A","EPOCH":"2026-03-07T12:54:40.056768","MEAN_MOTION":13.71474396,"ECCENTRICITY":0.01545038,"INCLINATION":89.8513,"RA_OF_ASC_NODE":253.7634,"ARG_OF_PERICENTER":183.2571,"MEAN_ANOMALY":176.7601,"EPHEMERIS_TYPE":0,"CLASSIFICATION_TYPE":"U","NORAD_CAT_ID":6909,"ELEMENT_SET_NO":999,"REV_AT_EPOCH":81523,"BSTAR":0.00025692921,"MEAN_MOTION_DOT":2.62e-6,"MEAN_MOTION_DDOT":0},{"OBJECT_NAME":"TRANSAT","OBJECT_ID":"1977-106A","EPOCH":"2026-03-07T13:54:59.027040","MEAN_MOTION":13.48957705,"ECCENTRICITY":0.00239887,"INCLINATION":89.6399,"RA_OF_ASC_NODE":75.5517,"ARG_OF_PERICENTER":311.9623,"MEAN_ANOMALY":163.279,"EPHEMERIS_TYPE":0,"CLASSIFICATION_TYPE":"U","NORAD_CAT_ID":10457,"ELEMENT_SET_NO":999,"REV_AT_EPOCH":37887,"BSTAR":0.00011450948,"MEAN_MOTION_DOT":8.2e-7,"MEAN_MOTION_DDOT":0},{"OBJECT_NAME":"NOVA 1","OBJECT_ID":"1981-044A","EPOCH":"2026-03-07T13:56:44.080800","MEAN_MOTION":13.23287228,"ECCENTRICITY":0.00128584,"INCLINATION":89.8424,"RA_OF_ASC_NODE":90.148,"ARG_OF_PERICENTER":224.8707,"MEAN_ANOMALY":248.8126,"EPHEMERIS_TYPE":0,"CLASSIFICATION_TYPE":"U","NORAD_CAT_ID":12458,"ELEMENT_SET_NO":999,"REV_AT_EPOCH":16308,"BSTAR":0.00011856158,"MEAN_MOTION_DOT":5.9e-7,"MEAN_MOTION_DDOT":0},{"OBJECT_NAME":"NOVA 3","OBJECT_ID":"1984-110A","EPOCH":"2026-03-07T14:57:24.689952","MEAN_MOTION":13.2305658,"ECCENTRICITY":0.00334486,"INCLINATION":90.1128,"RA_OF_ASC_NODE":81.4934,"ARG_OF_PERICENTER":95.2146,"MEAN_ANOMALY":20.758,"EPHEMERIS_TYPE":0,"CLASSIFICATION_TYPE":"U","NORAD_CAT_ID":15362,"ELEMENT_SET_NO":999,"REV_AT_EPOCH":99821,"BSTAR":0.00020320787,"MEAN_MOTION_DOT":9.4e-7,"MEAN_MOTION_DDOT":0},{"OBJECT_NAME":"OSCAR 30","OBJECT_ID":"1985-066A","EPOCH":"2026-03-07T14:27:51.481152","MEAN_MOTION":13.36094674,"ECCENTRICITY":0.01670682,"INCLINATION":90.1549,"RA_OF_ASC_NODE":101.2011,"ARG_OF_PERICENTER":203.6575,"MEAN_ANOMALY":272.4591,"EPHEMERIS_TYPE":0,"CLASSIFICATION_TYPE":"U","NORAD_CAT_ID":15935,"ELEMENT_SET_NO":999,"REV_AT_EPOCH":97586,"BSTAR":0.00015959892,"MEAN_MOTION_DOT":9.7e-7,"MEAN_MOTION_DDOT":0},{"OBJECT_NAME":"OSCAR 24","OBJECT_ID":"1985-066B","EPOCH":"2026-03-07T14:19:18.742080","MEAN_MOTION":13.35952458,"ECCENTRICITY":0.01678899,"INCLINATION":90.1686,"RA_OF_ASC_NODE":93.7683,"ARG_OF_PERICENTER":210.2455,"MEAN_ANOMALY":269.2313,"EPHEMERIS_TYPE":0,"CLASSIFICATION_TYPE":"U","NORAD_CAT_ID":15936,"ELEMENT_SET_NO":999,"REV_AT_EPOCH":97776,"BSTAR":0.00016076138,"MEAN_MOTION_DOT":9.7e-7,"MEAN_MOTION_DDOT":0},{"OBJECT_NAME":"POLAR BEAR","OBJECT_ID":"1986-088A","EPOCH":"2026-03-07T09:05:22.246944","MEAN_MOTION":13.75269844,"ECCENTRICITY":0.00380967,"INCLINATION":89.6253,"RA_OF_ASC_NODE":180.4095,"ARG_OF_PERICENTER":222.8664,"MEAN_ANOMALY":207.9378,"EPHEMERIS_TYPE":0,"CLASSIFICATION_TYPE":"U","NORAD_CAT_ID":17070,"ELEMENT_SET_NO":999,"REV_AT_EPOCH":97142,"BSTAR":0.00014921075,"MEAN_MOTION_DOT":1.55e-6,"MEAN_MOTION_DDOT":0},{"OBJECT_NAME":"OSCAR 27","OBJECT_ID":"1987-080A","EPOCH":"2026-03-07T13:58:23.398464","MEAN_MOTION":13.44924186,"ECCENTRICITY":0.01031648,"INCLINATION":90.3647,"RA_OF_ASC_NODE":82.4041,"ARG_OF_PERICENTER":342.6821,"MEAN_ANOMALY":17.0817,"EPHEMERIS_TYPE":0,"CLASSIFICATION_TYPE":"U","NORAD_CAT_ID":18361,"ELEMENT_SET_NO":999,"REV_AT_EPOCH":88697,"BSTAR":0.00015458828,"MEAN_MOTION_DOT":1.01e-6,"MEAN_MOTION_DDOT":0},{"OBJECT_NAME":"OSCAR 29","OBJECT_ID":"1987-080B","EPOCH":"2026-03-07T15:12:57.057408","MEAN_MOTION":13.44464243,"ECCENTRICITY":0.01055364,"INCLINATION":90.3656,"RA_OF_ASC_NODE":82.8716,"ARG_OF_PERICENTER":5.8286,"MEAN_ANOMALY":116.5706,"EPHEMERIS_TYPE":0,"CLASSIFICATION_TYPE":"U","NORAD_CAT_ID":18362,"ELEMENT_SET_NO":999,"REV_AT_EPOCH":88650,"BSTAR":0.00012307588,"MEAN_MOTION_DOT":8.2e-7,"MEAN_MOTION_DDOT":0},{"OBJECT_NAME":"OSCAR 23","OBJECT_ID":"1988-033A","EPOCH":"2026-03-07T15:01:35.076288","MEAN_MOTION":13.27803357,"ECCENTRICITY":0.01879697,"INCLINATION":90.3292,"RA_OF_ASC_NODE":19.0384,"ARG_OF_PERICENTER":304.7549,"MEAN_ANOMALY":230.0087,"EPHEMERIS_TYPE":0,"CLASSIFICATION_TYPE":"U","NORAD_CAT_ID":19070,"ELEMENT_SET_NO":999,"REV_AT_EPOCH":83379,"BSTAR":0.0001811804,"MEAN_MOTION_DOT":9.6e-7,"MEAN_MOTION_DDOT":0},{"OBJECT_NAME":"OSCAR 32","OBJECT_ID":"1988-033B","EPOCH":"2026-03-07T14:13:27.623712","MEAN_MOTION":13.27968023,"ECCENTRICITY":0.01861035,"INCLINATION":90.3296,"RA_OF_ASC_NODE":19.1739,"ARG_OF_PERICENTER":291.54,"MEAN_ANOMALY":244.5111,"EPHEMERIS_TYPE":0,"CLASSIFICATION_TYPE":"U","NORAD_CAT_ID":19071,"ELEMENT_SET_NO":999,"REV_AT_EPOCH":83391,"BSTAR":0.00019283865,"MEAN_MOTION_DOT":1.02e-6,"MEAN_MOTION_DDOT":0},{"OBJECT_NAME":"NOVA 2","OBJECT_ID":"1988-052A","EPOCH":"2026-03-07T15:15:17.529984","MEAN_MOTION":13.22947489,"ECCENTRICITY":0.00316865,"INCLINATION":89.9783,"RA_OF_ASC_NODE":78.1265,"ARG_OF_PERICENTER":137.036,"MEAN_ANOMALY":349.5542,"EPHEMERIS_TYPE":0,"CLASSIFICATION_TYPE":"U","NORAD_CAT_ID":19223,"ELEMENT_SET_NO":999,"REV_AT_EPOCH":82070,"BSTAR":0.00017011635,"MEAN_MOTION_DOT":8.1e-7,"MEAN_MOTION_DDOT":0},{"OBJECT_NAME":"OSCAR 25","OBJECT_ID":"1988-074A","EPOCH":"2026-03-07T08:14:28.716288","MEAN_MOTION":13.42641386,"ECCENTRICITY":0.0096548,"INCLINATION":90.0417,"RA_OF_ASC_NODE":20.5316,"ARG_OF_PERICENTER":6.1669,"MEAN_ANOMALY":114.5599,"EPHEMERIS_TYPE":0,"CLASSIFICATION_TYPE":"U","NORAD_CAT_ID":19419,"ELEMENT_SET_NO":999,"REV_AT_EPOCH":83775,"BSTAR":0.00024881,"MEAN_MOTION_DOT":1.54e-6,"MEAN_MOTION_DDOT":0}]
