OPS 7218 (TRANSIT 16)   
1 02807U 67048A   26066.51944494  .00000184  00000+0  27008-3 0  9994
2 02807  89.6811 351.2372 0018512 228.1801 306.8476 13.50743728894201
OPS 4947 (TRANSIT 17)   
1 02965U 67092A   26066.63049647  .00000202  00000+0  28216-3 0  9990
2 02965  89.2562  17.9700 0047591 351.9230 181.3858 13.53477572882454
OPS 7034 (TRANSIT 18)   
1 03133U 68012A   26066.62124972  .00000138  00000+0  19474-3 0  9999
2 03133  90.0212 273.8651 0072069 285.1425 136.0123 13.51588867580651
NNSS 19 (TRANSIT 19)    
1 04507U 70067A   26066.48258985  .00000161  00000+0  21133-3 0  9995
2 04507  90.0055 234.5797 0173043  47.8881 313.6834 13.51337878733667
NNSS 20 (TRANSIT 20)    
1 06909U 73081A   26066.53796362  .00000262  00000+0  25693-3 0  9991
2 06909  89.8513 253.7634 0154503 183.2571 176.7601 13.71474396815237
TRANSAT                 
1 10457U 77106A   26066.57984985  .00000082  00000+0  11451-3 0  9997
2 10457  89.6399  75.5517 0023988 311.9623 163.2790 13.48957705378878
NOVA 1                  
1 12458U 81044A   26066.58106575  .00000059  00000+0  11856-3 0  9991
2 12458  89.8424  90.1480 0012858 224.8707 248.8126 13.23287228163080
NOVA 3                  
1 15362U 84110A   26066.62320243  .00000094  00000+0  20321-3 0  9996
2 15362  90.1128  81.4934 0033448  95.2146  20.7580 13.23056580998212
OSCAR 30                
1 15935U 85066A   26066.60267918  .00000097  00000+0  15960-3 0  9996
2 15935  90.1549 101.2011 0167068 203.6575 272.4591 13.36094674975863
OSCAR 24                
1 15936U 85066B   26066.59674470  .00000097  00000+0  16076-3 0  9999
2 15936  90.1686  93.7683 0167889 210.2455 269.2313 13.35952458977767
POLAR BEAR              
1 17070U 86088A   26066.37872971  .00000155  00000+0  14921-3 0  9999
2 17070  89.6253 180.4095 0038096 222.8664 207.9378 13.75269844971421
OSCAR 27                
1 18361U 87080A   26066.58221526  .00000101  00000+0  15459-3 0  9991
2 18361  90.3647  82.4041 0103164 342.6821  17.0817 13.44924186886974
OSCAR 29                
1 18362U 87080B   26066.63399372  .00000082  00000+0  12308-3 0  9991
2 18362  90.3656  82.8716 0105536   5.8286 116.5706 13.44464243886500
OSCAR 23                
1 19070U 88033A   26066.62610042  .00000096  00000+0  18118-3 0  9996
2 19070  90.3292  19.0384 0187969 304.7549 230.0087 13.27803357833790
OSCAR 32                
1 19071U 88033B   26066.59268083  .00000102  00000+0  19284-3 0  9990
2 19071  90.3296  19.1739 0186103 291.5400 244.5111 13.27968023833912
NOVA 2                  
1 19223U 88052A   26066.63561956  .00000081  00000+0  17012-3 0  9993
2 19223  89.9783  78.1265 0031686 137.0360 349.5542 13.22947489820704
OSCAR 25                
1 19419U 88074A   26066.34338792  .00000154  00000+0  24881-3 0  9995
2 19419  90.0417  20.5316 0096548   6.1669 114.5599 13.42641386837756
